STARLINK-34176          
1 64104U 25110J   26058.26927552  .00021273  00000+0  72788-3 0  9992
2 64104  53.1596  75.4088 0001901 125.2364 234.8815 15.30219021 44285
STARLINK-11714 [DTC]    
1 64134U 25111M   26058.00626689  .00031947  00000+0  25129-3 0  9991
2 64134  42.9995  37.8134 0002626 186.7803 173.3030 15.70858914 44961
STARLINK-34263          
1 64164U 25112U   26058.23216937  .00005393  00000+0  37754-3 0  9994
2 64164  97.6035 111.1990 0001482 159.0019 201.1269 15.05661478 41734
STARLINK-34237          
1 64194U 25113AA  26058.22043664  .00029287  00000+0  99653-3 0  9996
2 64194  53.1597 139.6531 0001541  74.2869 285.8302 15.30216522 43429
STARLINK-11682 [DTC]    
1 64234U 25119B   26057.91000403  .00308503  00000+0  23101-2 0  9991
2 64234  42.9991 274.6010 0001632 249.9463 110.1229 15.70937390 43540
STARLINK-34333          
1 64264U 25120J   26057.74008232  .00034680  00000+0  11774-2 0  9990
2 64264  53.1584 167.2751 0000879  76.3413 283.7685 15.30203796 42198
STARLINK-34379          
1 64302U 25123M   26057.78637583  .00053111  00000+0  12066-2 0  9992
2 64302  70.0007 194.3494 0003561 269.3286  90.7488 15.42741201 40676
STARLINK-33782          
1 64332U 25124R   26058.30567556  .00043190  00000+0  15684-2 0  9992
2 64332  42.9972 180.2355 0000467 267.4400  92.6398 15.27609387 40196
STARLINK-34483          
1 64367U 25126Z   26058.20092320 -.00746529  00000+0 -69559-1 0  9990
2 64367  70.0011  60.7816 0006975 127.4704 232.7089 14.96704516 39115
STARLINK-34514          
1 64416U 25129E   26058.22593070  .00007106  00000+0  60265-3 0  9994
2 64416  70.0007 100.6966 0003394 272.6183  87.4587 14.98336886 39729
STARLINK-34402          
1 64446U 25130J   26058.21348090  .00025743  00000+0  87792-3 0  9999
2 64446  53.1586 136.8737 0001887 102.6681 257.4530 15.30213345 39103
STARLINK-34527          
1 64482U 25133L   26057.58944411  .00026954  00000+0  91918-3 0  9990
2 64482  53.1579 168.0203 0001388  91.1234 268.9925 15.30189471 39491
STARLINK-34532          
1 64607U 25137P   26058.25111136 -.00001439  00000+0 -36449-4 0  9990
2 64607  53.1612  33.8779 0001271  77.0813 283.0330 15.30204140 38995
STARLINK-34553          
1 64681U 25139T   26058.14563522  .00030803  00000+0  10472-2 0  9993
2 64681  53.1560 175.7319 0002341 127.5246 232.5968 15.30218390 38678
