
    {
      "objectName": "STARLINK-34176",
      "objectId": "2025-110J",
      "noradId": 64104,
      "epochUtc": "2026-02-27T06:27:45.404928",
      "meanMotionRevPerDay": 15.30219021,
      "eccentricity": 0.00019013,
      "inclinationDeg": 53.1596,
      "raanDeg": 75.4088,
      "argPerigeeDeg": 125.2364,
      "meanAnomalyDeg": 234.8815,
      "bstar": 0.0007278783,
      "meanMotionDot": 0.00021273,
      "meanMotionDdot": 0,
      "elementSetNo": 999,
      "revAtEpoch": 4428
    },
    {
      "objectName": "STARLINK-11714 [DTC]",
      "objectId": "2025-111M",
      "noradId": 64134,
      "epochUtc": "2026-02-27T00:09:01.459296",
      "meanMotionRevPerDay": 15.70858914,
      "eccentricity": 0.00026265,
      "inclinationDeg": 42.9995,
      "raanDeg": 37.8134,
      "argPerigeeDeg": 186.7803,
      "meanAnomalyDeg": 173.303,
      "bstar": 0.00025128521,
      "meanMotionDot": 0.00031947,
      "meanMotionDdot": 0,
      "elementSetNo": 999,
      "revAtEpoch": 4496
    },
    {
      "objectName": "STARLINK-34263",
      "objectId": "2025-112U",
      "noradId": 64164,
      "epochUtc": "2026-02-27T05:34:19.433568",
      "meanMotionRevPerDay": 15.05661478,
      "eccentricity": 0.00014825,
      "inclinationDeg": 97.6035,
      "raanDeg": 111.199,
      "argPerigeeDeg": 159.0019,
      "meanAnomalyDeg": 201.1269,
      "bstar": 0.0003775356,
      "meanMotionDot": 0.00005393,
      "meanMotionDdot": 0,
      "elementSetNo": 999,
      "revAtEpoch": 4173
    },
    {
      "objectName": "STARLINK-34237",
      "objectId": "2025-113AA",
      "noradId": 64194,
      "epochUtc": "2026-02-27T05:17:25.725696",
      "meanMotionRevPerDay": 15.30216522,
      "eccentricity": 0.00015412,
      "inclinationDeg": 53.1597,
      "raanDeg": 139.6531,
      "argPerigeeDeg": 74.2869,
      "meanAnomalyDeg": 285.8302,
      "bstar": 0.00099653115,
      "meanMotionDot": 0.00029287,
      "meanMotionDdot": 0,
      "elementSetNo": 999,
      "revAtEpoch": 4342
    },
    {
      "objectName": "STARLINK-11682 [DTC]",
      "objectId": "2025-119B",
      "noradId": 64234,
      "epochUtc": "2026-02-26T21:50:24.348192",
      "meanMotionRevPerDay": 15.7093739,
      "eccentricity": 0.0001632,
      "inclinationDeg": 42.9991,
      "raanDeg": 274.601,
      "argPerigeeDeg": 249.9463,
      "meanAnomalyDeg": 110.1229,
      "bstar": 0.0023101,
      "meanMotionDot": 0.00308503,
      "meanMotionDdot": 0,
      "elementSetNo": 999,
      "revAtEpoch": 4354
    },
    {
      "objectName": "STARLINK-34333",
      "objectId": "2025-120J",
      "noradId": 64264,
      "epochUtc": "2026-02-26T17:45:43.112448",
      "meanMotionRevPerDay": 15.30203796,
      "eccentricity": 0.00008798,
      "inclinationDeg": 53.1584,
      "raanDeg": 167.2751,
      "argPerigeeDeg": 76.3413,
      "meanAnomalyDeg": 283.7685,
      "bstar": 0.0011774375,
      "meanMotionDot": 0.0003468,
      "meanMotionDdot": 0,
      "elementSetNo": 999,
      "revAtEpoch": 4219
    },
    {
      "objectName": "STARLINK-34379",
      "objectId": "2025-123M",
      "noradId": 64302,
      "epochUtc": "2026-02-26T18:52:22.871712",
      "meanMotionRevPerDay": 15.42741201,
      "eccentricity": 0.00035616,
      "inclinationDeg": 70.0007,
      "raanDeg": 194.3494,
      "argPerigeeDeg": 269.3286,
      "meanAnomalyDeg": 90.7488,
      "bstar": 0.0012066342,
      "meanMotionDot": 0.00053111,
      "meanMotionDdot": 0,
      "elementSetNo": 999,
      "revAtEpoch": 4067
    },
    {
      "objectName": "STARLINK-33782",
      "objectId": "2025-124R",
      "noradId": 64332,
      "epochUtc": "2026-02-27T07:20:10.368384",
      "meanMotionRevPerDay": 15.27609387,
      "eccentricity": 0.00004672,
      "inclinationDeg": 42.9972,
      "raanDeg": 180.2355,
      "argPerigeeDeg": 267.44,
      "meanAnomalyDeg": 92.6398,
      "bstar": 0.0015684314,
      "meanMotionDot": 0.0004319,
      "meanMotionDdot": 0,
      "elementSetNo": 999,
      "revAtEpoch": 4019
    },
    {
      "objectName": "STARLINK-34483",
      "objectId": "2025-126Z",
      "noradId": 64367,
      "epochUtc": "2026-02-27T04:49:19.764480",
      "meanMotionRevPerDay": 14.96704516,
      "eccentricity": 0.00069753,
      "inclinationDeg": 70.0011,
      "raanDeg": 60.7816,
      "argPerigeeDeg": 127.4704,
      "meanAnomalyDeg": 232.7089,
      "bstar": -0.069559432,
      "meanMotionDot": -0.00746529,
      "meanMotionDdot": 0,
      "elementSetNo": 999,
      "revAtEpoch": 3911
    },
    {
      "objectName": "STARLINK-34514",
      "objectId": "2025-129E",
      "noradId": 64416,
      "epochUtc": "2026-02-27T05:25:20.412480",
      "meanMotionRevPerDay": 14.98336886,
      "eccentricity": 0.00033949,
      "inclinationDeg": 70.0007,
      "raanDeg": 100.6966,
      "argPerigeeDeg": 272.6183,
      "meanAnomalyDeg": 87.4587,
      "bstar": 0.00060265294,
      "meanMotionDot": 0.00007106,
      "meanMotionDdot": 0,
      "elementSetNo": 999,
      "revAtEpoch": 3972
    },
    {
      "objectName": "STARLINK-34402",
      "objectId": "2025-130J",
      "noradId": 64446,
      "epochUtc": "2026-02-27T05:07:24.749760",
      "meanMotionRevPerDay": 15.30213345,
      "eccentricity": 0.00018872,
      "inclinationDeg": 53.1586,
      "raanDeg": 136.8737,
      "argPerigeeDeg": 102.6681,
      "meanAnomalyDeg": 257.453,
      "bstar": 0.00087792103,
      "meanMotionDot": 0.00025743,
      "meanMotionDdot": 0,
      "elementSetNo": 999,
      "revAtEpoch": 3910
    },
    {
      "objectName": "STARLINK-34527",
      "objectId": "2025-133L",
      "noradId": 64482,
      "epochUtc": "2026-02-26T14:08:47.971104",
      "meanMotionRevPerDay": 15.30189471,
      "eccentricity": 0.0001388,
      "inclinationDeg": 53.1579,
      "raanDeg": 168.0203,
      "argPerigeeDeg": 91.1234,
      "meanAnomalyDeg": 268.9925,
      "bstar": 0.00091918,
      "meanMotionDot": 0.00026954,
      "meanMotionDdot": 0,
      "elementSetNo": 999,
      "revAtEpoch": 3949
    },
    {
      "objectName": "STARLINK-34532",
      "objectId": "2025-137P",
      "noradId": 64607,
      "epochUtc": "2026-02-27T06:01:36.021504",
      "meanMotionRevPerDay": 15.3020414,
      "eccentricity": 0.00012717,
      "inclinationDeg": 53.1612,
      "raanDeg": 33.8779,
      "argPerigeeDeg": 77.0813,
      "meanAnomalyDeg": 283.033,
      "bstar": -0.000036448827,
      "meanMotionDot": -0.00001439,
      "meanMotionDdot": 0,
      "elementSetNo": 999,
      "revAtEpoch": 3899
    },
    {
      "objectName": "STARLINK-34553",
      "objectId": "2025-139T",
      "noradId": 64681,
      "epochUtc": "2026-02-27T03:29:42.883008",
      "meanMotionRevPerDay": 15.3021839,
      "eccentricity": 0.00023418,
      "inclinationDeg": 53.156,
      "raanDeg": 175.7319,
      "argPerigeeDeg": 127.5246,
      "meanAnomalyDeg": 232.5968,
      "bstar": 0.0010472084,
      "meanMotionDot": 0.00030803,
      "meanMotionDdot": 0,
      "elementSetNo": 999,
      "revAtEpoch": 3867
    }